{
  "norad_id": 67751,
  "name": "2026-027F",
  "history": [
    {
      "epoch": "2026-04-22T06:37:53.577120Z",
      "apogee_km": 529.6117804581745,
      "perigee_km": 521.7727584758659,
      "latitude_deg": 4.572389108458079e-05,
      "longitude_deg": -69.08646571490948,
      "height_km": 529.0705885495707,
      "semi_major_axis_km": 6903.82926946702,
      "eccentricity": 0.00056773,
      "inclination_deg": 97.5005,
      "raan_deg": 240.727,
      "arg_perigee_deg": 265.7076,
      "mean_anomaly_deg": 94.3507,
      "mean_motion_rev_day": 15.13448676
    },
    {
      "epoch": "2026-04-23T14:22:07.056192Z",
      "apogee_km": 529.9728107747642,
      "perigee_km": 521.9594944096762,
      "latitude_deg": 1.6824115845952504e-05,
      "longitude_deg": 174.85497698813595,
      "height_km": 529.4659992106184,
      "semi_major_axis_km": 6904.10315259222,
      "eccentricity": 0.00058033,
      "inclination_deg": 97.4984,
      "raan_deg": 242.028,
      "arg_perigee_deg": 264.057,
      "mean_anomaly_deg": 96.0,
      "mean_motion_rev_day": 15.1335862
    },
    {
      "epoch": "2026-04-24T18:56:02.923008Z",
      "apogee_km": 530.8639447298956,
      "perigee_km": 521.6907398347394,
      "latitude_deg": 6.758877954784476e-05,
      "longitude_deg": 106.36894635539606,
      "height_km": 529.5108507829888,
      "semi_major_axis_km": 6904.414342282317,
      "eccentricity": 0.0006643,
      "inclination_deg": 97.4998,
      "raan_deg": 243.1979,
      "arg_perigee_deg": 268.1483,
      "mean_anomaly_deg": 91.8988,
      "mean_motion_rev_day": 15.13256308
    },
    {
      "epoch": "2026-04-25T12:23:31.083072Z",
      "apogee_km": 530.9104139011333,
      "perigee_km": 522.142872007309,
      "latitude_deg": 9.041780642852354e-06,
      "longitude_deg": -155.49834708256307,
      "height_km": 530.1857564813306,
      "semi_major_axis_km": 6904.66364295422,
      "eccentricity": 0.0006349,
      "inclination_deg": 97.5002,
      "raan_deg": 243.9149,
      "arg_perigee_deg": 262.4757,
      "mean_anomaly_deg": 97.5753,
      "mean_motion_rev_day": 15.13174352
    },
    {
      "epoch": "2026-04-26T07:26:13.328736Z",
      "apogee_km": 531.028678438649,
      "perigee_km": 522.0706760373332,
      "latitude_deg": 2.2573593933713835e-05,
      "longitude_deg": -81.17552547012784,
      "height_km": 530.3991501869631,
      "semi_major_axis_km": 6904.686677237991,
      "eccentricity": 0.00064869,
      "inclination_deg": 97.5002,
      "raan_deg": 244.6959,
      "arg_perigee_deg": 260.1748,
      "mean_anomaly_deg": 99.8751,
      "mean_motion_rev_day": 15.1316678
    },
    {
      "epoch": "2026-04-27T08:49:52.322016Z",
      "apogee_km": 531.2899560088727,
      "perigee_km": 522.2666127152688,
      "latitude_deg": 2.480961861326558e-05,
      "longitude_deg": -102.09069836756385,
      "height_km": 530.8271546138881,
      "semi_major_axis_km": 6904.91528436207,
      "eccentricity": 0.0006534,
      "inclination_deg": 97.4999,
      "raan_deg": 245.7361,
      "arg_perigee_deg": 257.6657,
      "mean_anomaly_deg": 102.3843,
      "mean_motion_rev_day": 15.13091634
    }
  ]
}